#dP2018  9  8  0  0  0.00000000      96 __u+U ITR00 FIT  IAC
## 2017 518400.00000000   900.00000000 58369 0.0000000000000
+   88   C01C02C03C04C05C06C07C08C09C10C11C12C13C14E01E02E03
+        E04E05E07E08E09E11E12E14E18E19E24E26E30G01G02G03G04
+        G05G06G07G08G09G10G11G12G13G14G15G16G17G18G19G20G21
+        G22G23G24G25G26G27G28G29G30G31G32J01J02J03R01R02R03
+        R04R05R07R08R09R10R11R13R14R15R16R17R18R19R20R21R22
+        R23R24R26  0  0  0  0  0  0  0  0  0  0  0  0  0  0
++         0  0  0  0  0  0  0  0  0  0  0  0  0  0  0  0  0
++         0  0  0  0  0  0  0  0  0  0  0  0  0  0  0  0  0
++         0  0  0  0  0  0  0  0  0  0  0  0  0  0  0  0  0
++         0  0  0  0  0  0  0  0  0  0  0  0  0  0  0  0  0
++         0  0  0  0  0  0  0  0  0  0  0  0  0  0  0  0  0
++         0  0  0  0  0  0  0  0  0  0  0  0  0  0  0  0  0
%c M  cc GPS ccc cccc cccc cccc cccc ccccc ccccc ccccc ccccc
%c cc cc ccc ccc cccc cccc cccc cccc ccccc ccccc ccccc ccccc
%f  0.0000000  0.000000000  0.00000000000  0.000000000000000
%f  0.0000000  0.000000000  0.00000000000  0.000000000000000
%i    0    0    0    0      0      0      0      0         0
%i    0    0    0    0      0      0      0      0         0
/*                                                          
/*   RSA / INFORMATION & ANALYSIS CENTER (IAC) OF MCC       
/*   ULTRA-RAPID DETERMINATION                              
/* PCV:IGS14_2000 OL/AL:FES2004  NONE     YN ORB:CoN CLK:CoN
*  2018 09 08  9  0  0.00000000
PC01 -32324.850977  27057.093180  -1026.816167    -78.720493
PC02   4391.063991  41908.241351   1236.849999     60.392943
PC03 -14777.486044  39496.935192   -479.242209    266.044994
PC04 -39610.058931  14403.495133   -506.427477   -341.963975
PC05  21859.788964  36053.283357   1051.679512   -432.954732
PC06  -7083.799928  32286.798949  26644.842790    281.309549
PC07 -18730.776396  22251.750481 -30543.772053    -12.016263
PC08 -22636.602621  35201.970795   3792.265704    517.243056
PC09   3277.766356  39396.148021  15293.642672     95.825290
PC10  -3583.592186  25362.677866 -33364.432360    -55.846347
PC11  14098.949298 -15758.929357  18305.022301   -670.986931
PC12  14729.963829   5831.053406  23015.277699    598.139895
PC13 -11704.045296  36578.988271  17120.634092   -267.015835
PC14  18460.840773  -4352.901655 -20429.314359    355.006277
PE01  24059.714563   8661.674126 -14891.281449   -430.263449
PE02 -24095.165314  -8645.281236  14870.189449     26.635057
PE03 -20337.753853 -19249.704230   9619.793151    -74.730077
PE04  19309.841507    694.673076 -22416.764788   -112.956738
PE05  -9441.813744 -26610.661273  -8884.746974    197.510620
PE07  -6954.664021  18377.010876  22144.621435    -34.510881
PE08 -19204.947839   -571.280764  22526.900803   6507.080643
PE09   6663.991279 -18371.703136 -22228.112039   6682.827996
PE11  14890.835114 -25436.255122   2651.896297   4732.372063
PE12  19818.086654 -10231.906018  19452.251446   5006.410488
PE14  14695.061695   9401.587515  16551.842094   6522.852247
PE18 -20644.654249  -2278.452620 -24701.023409   5922.513968
PE19  19780.805661  20542.535334  -7928.861454    -12.448089
PE24  17089.199616 -13780.641299  19853.442833   6504.384368
PE26  -1523.471844  25399.057047  15112.082053   5501.700645
PE30 -29168.816534   3568.221372  -3572.674568   5530.334606
PG01   9827.341073 -20332.931200 -13898.719357    -85.622798
PG02      0.000000      0.000000      0.000000 999999.999999
PG03    -25.760905 -15876.830295 -21334.356187    133.312436
PG04  25275.098450   8003.109633   3031.685016     96.634422
PG05 -20027.847812   5617.229917  16522.786028     -2.215785
PG06 -19918.919142   1048.074846 -17521.294929    366.340554
PG07  -5509.501360 -14930.591011  21436.728732    127.828745
PG08   7223.541805 -20138.350557  15681.919801   -114.410339
PG09  -7223.316755 -25302.695396   3538.258665    507.569617
PG10  24073.395407  11057.479092   2973.934321    183.144594
PG11   7975.506218 -25096.733510  -4749.238410   -719.488818
PG12  -6138.702679  13415.219427 -22277.973527    308.438035
PG13 -12638.925080  13018.580024  19282.833235    -89.572019
PG14  15204.024062   3598.019917 -21196.539055    -97.385296
PG15  -3228.714350  23157.140584  12001.278453   -346.462606
PG16  21281.770269  -1652.544811  15911.513683      9.988604
PG17 -13517.218747 -14112.798197 -17652.793020    -58.245154
PG18  16132.992113 -20286.390512  -5860.333388     54.861428
PG19 -14987.279365  -2924.772504 -22015.123480   -404.623385
PG20  18994.606973  14035.543294  12129.612973    515.467403
PG21   9672.668254  12729.129431  22013.674134   -340.307580
PG22   8770.029623 -13673.896243 -20775.912208   -513.046721
PG23   -829.203098 -25701.493245  -5396.560159   -211.286442
PG24 -12614.467891  21096.160792  -9788.401502    -55.085868
PG25   9421.287918  16931.408995 -18451.367125   -643.825077
PG26  25433.238403   3555.143460   7053.175454    -26.801954
PG27  12782.784530  -9506.632129  21119.092080    346.964956
PG28 -21608.640305 -14493.517370   5801.850330    743.195023
PG29   4644.685742  26002.790107   2750.580124    380.557985
PG30 -15170.674216  -7313.424212  20592.867117     26.923110
PG31  21366.764659  -2707.361278 -15784.045811     95.043988
PG32  15081.895381  12458.203571 -17965.453563   -429.786488
PJ01 -23014.011635  25582.509454  29510.350866   -112.948065
PJ02 -36102.354281  18949.990524  -6074.402027     -3.475899
PJ03 -19375.501851  27201.220177 -21160.257302      1.863440
PR01   1008.132268  15237.183810  20428.816710     31.695016
PR02  15499.640776  19765.290200   4630.513004    328.652782
PR03  18996.215671  11427.198304 -12617.772434    142.689888
PR04  11049.767086  -3983.485917 -22628.950731    275.423736
PR05  -2822.368231 -16262.407156 -19431.503565     10.142991
PR07 -18905.804790 -11013.394269  13117.036378    -46.606113
PR08 -11526.388141   3410.527146  22548.695840     21.408288
PR09 -11230.243147  -8116.948338  21450.576526     27.317631
PR10 -23376.651481    303.712488  10296.601202     31.273142
PR11 -22641.969084   8927.780179  -7705.118817    -40.197319
PR13  10769.760560   7896.293467 -21740.743706    -14.448641
PR14  23292.667293   -256.216023 -10351.705769     30.823343
PR15  24311.044221  -7069.299697   3494.841378    -15.964344
PR16   9422.889419 -12310.715243  20273.968909    101.192257
PR17  10296.169930   2875.489862  23162.359809    162.528037
PR18  12494.957055 -14539.650921  16805.056177     25.207306
PR19   8403.450599 -24068.768072    980.727459    -59.133022
PR20  -1552.252637 -19224.746056 -16669.263011   -351.499782
PR21 -10334.880885  -2468.465283 -23194.223121     -2.276856
PR22 -12324.171641  16505.940455 -15128.678986    -61.558915
PR23  -6047.663638  24554.369744   3313.340682    176.951012
PR24   2533.389610  18440.929405  17413.934759   -171.109691
PR26  -1230.965044 -20091.346999 -15679.179420     46.151918
EOF
